Company,Contact,Address,add2,City,State,Zip,qty
Clark Distribution,Receiving,8250 NE Underground,Pillar 158,Kansas City,MO,64161,700
Clark Distribution,Receiving,8250 NE Underground,Pillar 158,Kansas City,MO,64161,150
Clark Distribution,Receiving,8250 NE Underground,Pillar 158,Kansas City,MO,64161,50
Clark Distribution,Receiving,8250 NE Underground,Pillar 158,Kansas City,MO,64161,300
Clark Distribution,Receiving,8250 NE Underground,Pillar 158,Kansas City,MO,64161,150
Clark Distribution,Receiving,8250 NE Underground,Pillar 158,Kansas City,MO,64161,100
Clark Distribution,Receiving,8250 NE Underground,Pillar 158,Kansas City,MO,64161,160
Clark Distribution,Receiving,8250 NE Underground,Pillar 158,Kansas City,MO,64161,655
Clark Distribution,Receiving,8250 NE Underground,Pillar 158,Kansas City,MO,64161,"1,225"
Clark Distribution,Receiving,8250 NE Underground,Pillar 158,Kansas City,MO,64161,25
Clark Distribution,Receiving,8250 NE Underground,Pillar 158,Kansas City,MO,64161,100
Clark Distribution,Receiving,8250 NE Underground,Pillar 158,Kansas City,MO,64161,175
Clark Distribution,Receiving,8250 NE Underground,Pillar 158,Kansas City,MO,64161,325
Clark Distribution,Receiving,8250 NE Underground,Pillar 158,Kansas City,MO,64161,600
Clark Distribution,Receiving,8250 NE Underground,Pillar 158,Kansas City,MO,64161,895
Clark Distribution,Receiving,8250 NE Underground,Pillar 158,Kansas City,MO,64161,25
Clark Distribution,Receiving,8250 NE Underground,Pillar 158,Kansas City,MO,64161,100
Clark Distribution,Receiving,8250 NE Underground,Pillar 158,Kansas City,MO,64161,25
Clark Distribution,Receiving,8250 NE Underground,Pillar 158,Kansas City,MO,64161,700
Clark Distribution,Receiving,8250 NE Underground,Pillar 158,Kansas City,MO,64161,"1,250"
Clark Distribution,Receiving,8250 NE Underground,Pillar 158,Kansas City,MO,64161,125
Clark Distribution,Receiving,8250 NE Underground,Pillar 158,Kansas City,MO,64161,50
Clark Distribution,Receiving,8250 NE Underground,Pillar 158,Kansas City,MO,64161,50
Clark Distribution,Receiving,8250 NE Underground,Pillar 158,Kansas City,MO,64161,40
Clark Distribution,Receiving,8250 NE Underground,Pillar 158,Kansas City,MO,64161,75
Clark Distribution,Receiving,8250 NE Underground,Pillar 158,Kansas City,MO,64161,25
Clark Distribution,Receiving,8250 NE Underground,Pillar 158,Kansas City,MO,64161,10
Clark Distribution,Receiving,8250 NE Underground,Pillar 158,Kansas City,MO,64161,455
Clark Distribution,Receiving,8250 NE Underground,Pillar 158,Kansas City,MO,64161,50
Clark Distribution,Receiving,8250 NE Underground,Pillar 158,Kansas City,MO,64161,"9,000"
Clark Distribution,Receiving,8250 NE Underground,Pillar 158,Kansas City,MO,64161,250
Clark Distribution,Receiving,8250 NE Underground,Pillar 158,Kansas City,MO,64161,215
